CCSDS_OMM_VERS = 2.0
CREATION_DATE  = 
ORIGINATOR     = 

OBJECT_NAME    = ATLAS CENTAUR R/B
OBJECT_ID      = 1972-065B
CENTER_NAME    = EARTH
REF_FRAME      = TEME
TIME_SYSTEM    = UTC
MEAN_ELEMENT_THEORY = SGP/SGP4

EPOCH          = 2025-12-22T19:07:04.181088
MEAN_MOTION    = 14.77433916
ECCENTRICITY   = .00332189
INCLINATION    = 35.0025
RA_OF_ASC_NODE = 36.2863
ARG_OF_PERICENTER = 83.2942
MEAN_ANOMALY   = 277.1537

EPHEMERIS_TYPE = 0
CLASSIFICATION_TYPE = U
NORAD_CAT_ID   = 6155
ELEMENT_SET_NO = 999
REV_AT_EPOCH   = 82988
BSTAR          = .1454104E-3
MEAN_MOTION_DOT = .1037E-4
MEAN_MOTION_DDOT = 0

CCSDS_OMM_VERS = 2.0
CREATION_DATE  = 
ORIGINATOR     = 

OBJECT_NAME    = SL-8 R/B
OBJECT_ID      = 1975-112B
CENTER_NAME    = EARTH
REF_FRAME      = TEME
TIME_SYSTEM    = UTC
MEAN_ELEMENT_THEORY = SGP/SGP4

EPOCH          = 2025-12-22T22:00:32.382144
MEAN_MOTION    = 14.38152480
ECCENTRICITY   = .00166863
INCLINATION    = 74.0590
RA_OF_ASC_NODE = 160.1378
ARG_OF_PERICENTER = 270.4520
MEAN_ANOMALY   = 89.4722

EPHEMERIS_TYPE = 0
CLASSIFICATION_TYPE = U
NORAD_CAT_ID   = 8459
ELEMENT_SET_NO = 999
REV_AT_EPOCH   = 62083
BSTAR          = .12773692E-3
MEAN_MOTION_DOT = .362E-5
MEAN_MOTION_DDOT = 0

CCSDS_OMM_VERS = 2.0
CREATION_DATE  = 
ORIGINATOR     = 

OBJECT_NAME    = SL-3 R/B
OBJECT_ID      = 1977-057B
CENTER_NAME    = EARTH
REF_FRAME      = TEME
TIME_SYSTEM    = UTC
MEAN_ELEMENT_THEORY = SGP/SGP4

EPOCH          = 2025-12-22T22:29:36.453408
MEAN_MOTION    = 15.43180411
ECCENTRICITY   = .00071386
INCLINATION    = 97.5687
RA_OF_ASC_NODE = 160.6641
ARG_OF_PERICENTER = 192.0089
MEAN_ANOMALY   = 168.0989

EPHEMERIS_TYPE = 0
CLASSIFICATION_TYPE = U
NORAD_CAT_ID   = 10114
ELEMENT_SET_NO = 999
REV_AT_EPOCH   = 65648
BSTAR          = .31756515E-3
MEAN_MOTION_DOT = .14009E-3
MEAN_MOTION_DDOT = 0

CCSDS_OMM_VERS = 2.0
CREATION_DATE  = 
ORIGINATOR     = 

OBJECT_NAME    = SEASAT 1
OBJECT_ID      = 1978-064A
CENTER_NAME    = EARTH
REF_FRAME      = TEME
TIME_SYSTEM    = UTC
MEAN_ELEMENT_THEORY = SGP/SGP4

EPOCH          = 2025-12-22T20:25:48.748224
MEAN_MOTION    = 14.46071447
ECCENTRICITY   = .00013812
INCLINATION    = 108.0135
RA_OF_ASC_NODE = 324.2484
ARG_OF_PERICENTER = 254.2230
MEAN_ANOMALY   = 105.8763

EPHEMERIS_TYPE = 0
CLASSIFICATION_TYPE = U
NORAD_CAT_ID   = 10967
ELEMENT_SET_NO = 999
REV_AT_EPOCH   = 49540
BSTAR          = .11601905E-3
MEAN_MOTION_DOT = .277E-5
MEAN_MOTION_DDOT = 0

CCSDS_OMM_VERS = 2.0
CREATION_DATE  = 
ORIGINATOR     = 

OBJECT_NAME    = SL-14 R/B
OBJECT_ID      = 1979-011B
CENTER_NAME    = EARTH
REF_FRAME      = TEME
TIME_SYSTEM    = UTC
MEAN_ELEMENT_THEORY = SGP/SGP4

EPOCH          = 2025-12-22T21:59:44.412000
MEAN_MOTION    = 14.91781572
ECCENTRICITY   = .00150449
INCLINATION    = 82.5234
RA_OF_ASC_NODE = 169.3922
ARG_OF_PERICENTER = 318.1744
MEAN_ANOMALY   = 41.8325

EPHEMERIS_TYPE = 0
CLASSIFICATION_TYPE = U
NORAD_CAT_ID   = 11267
ELEMENT_SET_NO = 999
REV_AT_EPOCH   = 51733
BSTAR          = .59038077E-4
MEAN_MOTION_DOT = .621E-5
MEAN_MOTION_DDOT = 0

CCSDS_OMM_VERS = 2.0
CREATION_DATE  = 
ORIGINATOR     = 

OBJECT_NAME    = SL-8 R/B
OBJECT_ID      = 1979-089B
CENTER_NAME    = EARTH
REF_FRAME      = TEME
TIME_SYSTEM    = UTC
MEAN_ELEMENT_THEORY = SGP/SGP4

EPOCH          = 2025-12-22T23:07:00.391872
MEAN_MOTION    = 14.42290068
ECCENTRICITY   = .00146504
INCLINATION    = 74.0679
RA_OF_ASC_NODE = 233.0579
ARG_OF_PERICENTER = 63.1561
MEAN_ANOMALY   = 297.1091

EPHEMERIS_TYPE = 0
CLASSIFICATION_TYPE = U
NORAD_CAT_ID   = 11574
ELEMENT_SET_NO = 999
REV_AT_EPOCH   = 42504
BSTAR          = .84914498E-4
MEAN_MOTION_DOT = .254E-5
MEAN_MOTION_DDOT = 0

CCSDS_OMM_VERS = 2.0
CREATION_DATE  = 
ORIGINATOR     = 

OBJECT_NAME    = SL-14 R/B
OBJECT_ID      = 1980-005B
CENTER_NAME    = EARTH
REF_FRAME      = TEME
TIME_SYSTEM    = UTC
MEAN_ELEMENT_THEORY = SGP/SGP4

EPOCH          = 2025-12-22T13:02:42.995616
MEAN_MOTION    = 14.90802429
ECCENTRICITY   = .00172077
INCLINATION    = 82.5141
RA_OF_ASC_NODE = 20.4008
ARG_OF_PERICENTER = 63.6615
MEAN_ANOMALY   = 296.6369

EPHEMERIS_TYPE = 0
CLASSIFICATION_TYPE = U
NORAD_CAT_ID   = 11672
ELEMENT_SET_NO = 999
REV_AT_EPOCH   = 46499
BSTAR          = .49007684E-4
MEAN_MOTION_DOT = .509E-5
MEAN_MOTION_DDOT = 0

CCSDS_OMM_VERS = 2.0
CREATION_DATE  = 
ORIGINATOR     = 

OBJECT_NAME    = SL-8 R/B
OBJECT_ID      = 1981-003B
CENTER_NAME    = EARTH
REF_FRAME      = TEME
TIME_SYSTEM    = UTC
MEAN_ELEMENT_THEORY = SGP/SGP4

EPOCH          = 2025-12-22T11:56:07.475136
MEAN_MOTION    = 15.07306314
ECCENTRICITY   = .02782694
INCLINATION    = 82.9325
RA_OF_ASC_NODE = 1.2235
ARG_OF_PERICENTER = 86.7267
MEAN_ANOMALY   = 276.5753

EPHEMERIS_TYPE = 0
CLASSIFICATION_TYPE = U
NORAD_CAT_ID   = 12139
ELEMENT_SET_NO = 999
REV_AT_EPOCH   = 30303
BSTAR          = .45017556E-3
MEAN_MOTION_DOT = .17017E-3
MEAN_MOTION_DDOT = 0

CCSDS_OMM_VERS = 2.0
CREATION_DATE  = 
ORIGINATOR     = 

OBJECT_NAME    = SL-3 R/B
OBJECT_ID      = 1981-046B
CENTER_NAME    = EARTH
REF_FRAME      = TEME
TIME_SYSTEM    = UTC
MEAN_ELEMENT_THEORY = SGP/SGP4

EPOCH          = 2025-12-22T21:32:25.573344
MEAN_MOTION    = 15.39804130
ECCENTRICITY   = .00182211
INCLINATION    = 81.2318
RA_OF_ASC_NODE = 21.7841
ARG_OF_PERICENTER = 287.3919
MEAN_ANOMALY   = 72.5330

EPHEMERIS_TYPE = 0
CLASSIFICATION_TYPE = U
NORAD_CAT_ID   = 12465
ELEMENT_SET_NO = 999
REV_AT_EPOCH   = 42660
BSTAR          = .29356018E-3
MEAN_MOTION_DOT = .11735E-3
MEAN_MOTION_DDOT = 0

CCSDS_OMM_VERS = 2.0
CREATION_DATE  = 
ORIGINATOR     = 

OBJECT_NAME    = SL-3 R/B
OBJECT_ID      = 1981-103B
CENTER_NAME    = EARTH
REF_FRAME      = TEME
TIME_SYSTEM    = UTC
MEAN_ELEMENT_THEORY = SGP/SGP4

EPOCH          = 2025-12-22T22:15:41.423328
MEAN_MOTION    = 15.20346846
ECCENTRICITY   = .00125583
INCLINATION    = 81.1606
RA_OF_ASC_NODE = 303.4211
ARG_OF_PERICENTER = 176.6746
MEAN_ANOMALY   = 183.4571

EPHEMERIS_TYPE = 0
CLASSIFICATION_TYPE = U
NORAD_CAT_ID   = 12904
ELEMENT_SET_NO = 999
REV_AT_EPOCH   = 96156
BSTAR          = .31259959E-3
MEAN_MOTION_DOT = .6839E-4
MEAN_MOTION_DDOT = 0

CCSDS_OMM_VERS = 2.0
CREATION_DATE  = 
ORIGINATOR     = 

OBJECT_NAME    = SL-3 R/B
OBJECT_ID      = 1982-013B
CENTER_NAME    = EARTH
REF_FRAME      = TEME
TIME_SYSTEM    = UTC
MEAN_ELEMENT_THEORY = SGP/SGP4

EPOCH          = 2025-12-22T23:18:19.539072
MEAN_MOTION    = 15.21171626
ECCENTRICITY   = .00241079
INCLINATION    = 81.1747
RA_OF_ASC_NODE = 250.6339
ARG_OF_PERICENTER = 78.1352
MEAN_ANOMALY   = 282.2581

EPHEMERIS_TYPE = 0
CLASSIFICATION_TYPE = U
NORAD_CAT_ID   = 13068
ELEMENT_SET_NO = 999
REV_AT_EPOCH   = 39268
BSTAR          = .21051023E-3
MEAN_MOTION_DOT = .4753E-4
MEAN_MOTION_DDOT = 0

CCSDS_OMM_VERS = 2.0
CREATION_DATE  = 
ORIGINATOR     = 

OBJECT_NAME    = SL-3 R/B
OBJECT_ID      = 1982-039B
CENTER_NAME    = EARTH
REF_FRAME      = TEME
TIME_SYSTEM    = UTC
MEAN_ELEMENT_THEORY = SGP/SGP4

EPOCH          = 2025-12-22T21:55:27.547392
MEAN_MOTION    = 15.09579905
ECCENTRICITY   = .00294158
INCLINATION    = 81.1715
RA_OF_ASC_NODE = 304.3920
ARG_OF_PERICENTER = 217.6882
MEAN_ANOMALY   = 142.2283

EPHEMERIS_TYPE = 0
CLASSIFICATION_TYPE = U
NORAD_CAT_ID   = 13154
ELEMENT_SET_NO = 999
REV_AT_EPOCH   = 37005
BSTAR          = .18146758E-3
MEAN_MOTION_DOT = .2966E-4
MEAN_MOTION_DDOT = 0

