ATLAS CENTAUR R/B       
1 06155U 72065B   25356.79657617  .00001037  00000+0  14541-3 0  9994
2 06155  35.0025  36.2863 0033218  83.2942 277.1537 14.77433916829889
SL-8 R/B                
1 08459U 75112B   25356.91704146  .00000362  00000+0  12774-3 0  9999
2 08459  74.0590 160.1378 0016686 270.4520  89.4722 14.38152480620833
SL-3 R/B                
1 10114U 77057B   25356.93722747  .00014009  00000+0  31757-3 0  9994
2 10114  97.5687 160.6641 0007138 192.0089 168.0989 15.43180411656481
SEASAT 1                
1 10967U 78064A   25356.85125866  .00000277  00000+0  11602-3 0  9998
2 10967 108.0135 324.2484 0001381 254.2230 105.8763 14.46071447495401
SL-14 R/B               
1 11267U 79011B   25356.91648625  .00000621  00000+0  59038-4 0  9994
2 11267  82.5234 169.3922 0015044 318.1744  41.8325 14.91781572517334
SL-8 R/B                
1 11574U 79089B   25356.96319898  .00000254  00000+0  84914-4 0  9995
2 11574  74.0679 233.0579 0014650  63.1561 297.1091 14.42290068425040
SL-14 R/B               
1 11672U 80005B   25356.54355319  .00000509  00000+0  49008-4 0  9994
2 11672  82.5141  20.4008 0017207  63.6615 296.6369 14.90802429464990
SL-8 R/B                
1 12139U 81003B   25356.49730874  .00017017  00000+0  45018-3 0  9997
2 12139  82.9325   1.2235 0278269  86.7267 276.5753 15.07306314303034
SL-3 R/B                
1 12465U 81046B   25356.89751821  .00011735  00000+0  29356-3 0  9993
2 12465  81.2318  21.7841 0018221 287.3919  72.5330 15.39804130426601
SL-3 R/B                
1 12904U 81103B   25356.92756277  .00006839  00000+0  31260-3 0  9995
2 12904  81.1606 303.4211 0012558 176.6746 183.4571 15.20346846961567
SL-3 R/B                
1 13068U 82013B   25356.97105948  .00004753  00000+0  21051-3 0  9996
2 13068  81.1747 250.6339 0024107  78.1352 282.2581 15.21171626392684
SL-3 R/B                
1 13154U 82039B   25356.91351328  .00002966  00000+0  18147-3 0  9995
2 13154  81.1715 304.3920 0029415 217.6882 142.2283 15.09579905370052
